[{"OBJECT_NAME":"STARLINK-6088","OBJECT_ID":"2023-046F","EPOCH":"2026-03-09T22:00:01.999584","MEAN_MOTION":15.06752995,"ECCENTRICITY":0.00022331,"INCLINATION":43.0013,"RA_OF_ASC_NODE":157.9436,"ARG_OF_PERICENTER":264.7386,"MEAN_ANOMALY":92.2691,"EPHEMERIS_TYPE":0,"CLASSIFICATION_TYPE":"U","NORAD_CAT_ID":56098,"ELEMENT_SET_NO":999,"REV_AT_EPOCH":577,"BSTAR":4.5351091e-5,"MEAN_MOTION_DOT":4.74e-6,"MEAN_MOTION_DDOT":0},{"OBJECT_NAME":"MUSAT-2","OBJECT_ID":"2024-043B","EPOCH":"2026-03-09T22:04:01.255008","MEAN_MOTION":15.07177436,"ECCENTRICITY":0.0006495,"INCLINATION":97.8438,"RA_OF_ASC_NODE":205.4399,"ARG_OF_PERICENTER":314.3478,"MEAN_ANOMALY":45.7216,"EPHEMERIS_TYPE":0,"CLASSIFICATION_TYPE":"U","NORAD_CAT_ID":59099,"ELEMENT_SET_NO":999,"REV_AT_EPOCH":11013,"BSTAR":0.00067214198,"MEAN_MOTION_DOT":0.00010059,"MEAN_MOTION_DDOT":0}]
